KUIPER-00167            
1 65780U 25217U   25357.16668980 -.00038999  00000+0 -49622-2 0  9993
2 65780  51.8972  23.8954 0001000  75.5515 132.7811 14.81211144  1595
KUIPER-00168            
1 65781U 25217V   25357.16668980 -.02536503  00000+0 -85032-1 0  9994
2 65781  51.8730  13.4334 0001519  92.2240   8.9298 15.34455129  5848
KUIPER-00169            
1 65782U 25217W   25357.16668980 -.00828563  00000+0 -43437-1 0  9996
2 65782  51.8839  14.8715 0005369  48.9931  85.9509 15.18122737  4958
KUIPER-00170            
1 65783U 25217X   25357.16668980 -.00012969  00000+0 -90391-3 0  9995
2 65783  51.8902  17.9594 0007957  45.9992  14.1415 15.04212042  5672
KUIPER-00171            
1 65784U 25217Y   25356.53174384  .00206373  00000+0  15455-2 0  9995
2 65784  51.8559   6.4187 0011504  47.6782 312.5192 15.71404302 13695
KUIPER-00172            
1 65785U 25217Z   25357.16668980 -.01394238  00000+0 -63306-1 0  9994
2 65785  51.8784  14.0832 0005212  47.0118  59.7101 15.23602607  1405
KUIPER-00173            
1 65786U 25217AA  25357.16668980 -.01627231  00000+0 -89992-1 0  9996
2 65786  51.8795  15.0747 0001502  12.7579 310.8722 15.16900498  5362
KUIPER-00174            
1 65787U 25217AB  25357.16668980 -.01017140  00000+0 -35991-1 0  9999
2 65787  51.8764  13.5662 0000622 346.0305  28.6459 15.31314653  5517
